start=new Date('2023-01-10T00:00:00.000Z').valueOf();
sats=[{"NORAD_CAT_ID":"53794","SEMIMAJOR_AXIS":"6917.862","EPOCH":"2023-01-09T10:10:20.977824","EPHEMERIS_TYPE":"0","SITE":"AFETR","LAUNCH_DATE":"2022-09-11","DECAY_DATE":null,"REV_AT_EPOCH":"1928","TLE_LINE1":"1 53794U 22111X   23009.42385391  .00000973  00000-0  79247-4 0  9996","PERIOD":"95.437","CLASSIFICATION_TYPE":"U","OBJECT_TYPE":"PAYLOAD","INCLINATION":"53.2175","ELEMENT_SET_NO":"999","MEAN_MOTION_DOT":"0.00000973","MEAN_MOTION":"15.08846142","MEAN_ELEMENT_THEORY":"SGP4","ARG_OF_PERICENTER":"41.8958","TLE_LINE2":"2 53794  53.2175  60.0627 0002868  41.8958 318.2253 15.08846142 19286","RCS_SIZE":"LARGE","PERIAPSIS":"537.743","OBJECT_NAME":"STARLINK-4730","COUNTRY_CODE":"US","RA_OF_ASC_NODE":"60.0627","OBJECT_ID":"2022-111X","BSTAR":"0.00007924700000","GP_ID":"222545761","REF_FRAME":"TEME","APOAPSIS":"541.711","MEAN_ANOMALY":"318.2253","ECCENTRICITY":"0.00028680","TIME_SYSTEM":"UTC","FILE":"3737263","MEAN_MOTION_DDOT":"0.0000000000000","CENTER_NAME":"EARTH"},{"OBJECT_TYPE":"PAYLOAD","INCLINATION":"53.2190","MEAN_MOTION_DOT":"-0.00000947","MEAN_MOTION":"15.08848489","ELEMENT_SET_NO":"999","MEAN_ELEMENT_THEORY":"SGP4","ARG_OF_PERICENTER":"32.7751","NORAD_CAT_ID":"53795","DECAY_DATE":null,"REV_AT_EPOCH":"1850","LAUNCH_DATE":"2022-09-11","EPHEMERIS_TYPE":"0","SEMIMAJOR_AXIS":"6917.854","EPOCH":"2023-01-09T13:10:30.593280","SITE":"AFETR","TLE_LINE1":"1 53795U 22111Y   23009.54896520 -.00000947  00000-0 -41352-4 0  9990","CLASSIFICATION_TYPE":"U","PERIOD":"95.437","APOAPSIS":"541.625","REF_FRAME":"TEME","MEAN_ANOMALY":"327.3412","ECCENTRICITY":"0.00027540","TIME_SYSTEM":"UTC","MEAN_MOTION_DDOT":"0.0000000000000","CENTER_NAME":"EARTH","FILE":"3737638","COUNTRY_CODE":"US","OBJECT_NAME":"STARLINK-4742","RA_OF_ASC_NODE":"59.4243","TLE_LINE2":"2 53795  53.2190  59.4243 0002754  32.7751 327.3412 15.08848489 18502","PERIAPSIS":"537.814","RCS_SIZE":"LARGE","OBJECT_ID":"2022-111Y","GP_ID":"222582570","BSTAR":"-0.00004135200000"},{"MEAN_MOTION_DOT":"0.00001133","MEAN_MOTION":"15.08841486","ELEMENT_SET_NO":"999","ARG_OF_PERICENTER":"80.5138","MEAN_ELEMENT_THEORY":"SGP4","OBJECT_TYPE":"PAYLOAD","INCLINATION":"53.2179","TLE_LINE1":"1 53796U 22111Z   23009.35577335  .00001133  00000-0  89288-4 0  9996","CLASSIFICATION_TYPE":"U","PERIOD":"95.437","NORAD_CAT_ID":"53796","LAUNCH_DATE":"2022-09-11","DECAY_DATE":null,"REV_AT_EPOCH":"1883","SITE":"AFETR","SEMIMAJOR_AXIS":"6917.876","EPOCH":"2023-01-09T08:32:18.817440","EPHEMERIS_TYPE":"0","TIME_SYSTEM":"UTC","ECCENTRICITY":"0.00017120","CENTER_NAME":"EARTH","MEAN_MOTION_DDOT":"0.0000000000000","FILE":"3737644","MEAN_ANOMALY":"279.6047","REF_FRAME":"TEME","APOAPSIS":"540.925","OBJECT_ID":"2022-111Z","GP_ID":"222582213","BSTAR":"0.00008928800000","COUNTRY_CODE":"US","OBJECT_NAME":"STARLINK-4721","RA_OF_ASC_NODE":"40.2710","RCS_SIZE":"LARGE","TLE_LINE2":"2 53796  53.2179  40.2710 0001712  80.5138 279.6047 15.08841486 18839","PERIAPSIS":"538.557"},{"OBJECT_ID":"2022-111AA","GP_ID":"222546911","BSTAR":"0.00026144000000","RA_OF_ASC_NODE":"59.9464","COUNTRY_CODE":"US","OBJECT_NAME":"STARLINK-4723","TLE_LINE2":"2 53797  53.2156  59.9464 0001847  60.1819 299.9356 15.08849544 19277","RCS_SIZE":"LARGE","PERIAPSIS":"538.438","ECCENTRICITY":"0.00018470","TIME_SYSTEM":"UTC","CENTER_NAME":"EARTH","MEAN_MOTION_DDOT":"0.0000000000000","FILE":"3737263","MEAN_ANOMALY":"299.9356","REF_FRAME":"TEME","APOAPSIS":"540.994","TLE_LINE1":"1 53797U 22111AA  23009.40544414  .00003876  00000-0  26144-3 0  9992","CLASSIFICATION_TYPE":"U","PERIOD":"95.437","NORAD_CAT_ID":"53797","DECAY_DATE":null,"REV_AT_EPOCH":"1927","LAUNCH_DATE":"2022-09-11","SITE":"AFETR","SEMIMAJOR_AXIS":"6917.851","EPOCH":"2023-01-09T09:43:50.373696","EPHEMERIS_TYPE":"0","MEAN_MOTION":"15.08849544","MEAN_MOTION_DOT":"0.00003876","ELEMENT_SET_NO":"999","ARG_OF_PERICENTER":"60.1819","MEAN_ELEMENT_THEORY":"SGP4","OBJECT_TYPE":"PAYLOAD","INCLINATION":"53.2156"},{"CENTER_NAME":"EARTH","MEAN_MOTION_DDOT":"0.0000000000000","FILE":"3737263","ECCENTRICITY":"0.00013130","TIME_SYSTEM":"UTC","MEAN_ANOMALY":"274.0990","APOAPSIS":"540.670","REF_FRAME":"TEME","GP_ID":"222546222","BSTAR":"0.00010792000000","OBJECT_ID":"2022-111AB","COUNTRY_CODE":"US","OBJECT_NAME":"STARLINK-4712","RA_OF_ASC_NODE":"59.9697","TLE_LINE2":"2 53798  53.2172  59.9697 0001313  86.0152 274.0990 15.08834723 19270","RCS_SIZE":"LARGE","PERIAPSIS":"538.853","ARG_OF_PERICENTER":"86.0152","MEAN_ELEMENT_THEORY":"SGP4","MEAN_MOTION_DOT":"0.00001430","MEAN_MOTION":"15.08834723","ELEMENT_SET_NO":"999","INCLINATION":"53.2172","OBJECT_TYPE":"PAYLOAD","CLASSIFICATION_TYPE":"U","PERIOD":"95.438","TLE_LINE1":"1 53798U 22111AB  23009.40912695  .00001430  00000-0  10792-3 0  9999","LAUNCH_DATE":"2022-09-11","DECAY_DATE":null,"REV_AT_EPOCH":"1927","SITE":"AFETR","SEMIMAJOR_AXIS":"6917.897","EPHEMERIS_TYPE":"0","EPOCH":"2023-01-09T09:49:08.568480","NORAD_CAT_ID":"53798"},{"ELEMENT_SET_NO":"999","MEAN_MOTION":"15.08855620","MEAN_MOTION_DOT":"0.00008416","ARG_OF_PERICENTER":"47.0557","MEAN_ELEMENT_THEORY":"SGP4","OBJECT_TYPE":"PAYLOAD","INCLINATION":"53.2173","TLE_LINE1":"1 53799U 22111AC  23009.36959511  .00008416  00000-0  54601-3 0  9991","PERIOD":"95.437","CLASSIFICATION_TYPE":"U","NORAD_CAT_ID":"53799","SITE":"AFETR","SEMIMAJOR_AXIS":"6917.833","EPOCH":"2023-01-09T08:52:13.017504","EPHEMERIS_TYPE":"0","LAUNCH_DATE":"2022-09-11","DECAY_DATE":null,"REV_AT_EPOCH":"1940","TIME_SYSTEM":"UTC","ECCENTRICITY":"0.00018730","FILE":"3737263","CENTER_NAME":"EARTH","MEAN_MOTION_DDOT":"0.0000000000000","MEAN_ANOMALY":"313.0592","APOAPSIS":"540.993","REF_FRAME":"TEME","OBJECT_ID":"2022-111AC","BSTAR":"0.00054601000000","GP_ID":"222546452","TLE_LINE2":"2 53799  53.2173  50.4582 0001873  47.0557 313.0592 15.08855620 19404","RCS_SIZE":"LARGE","PERIAPSIS":"538.402","OBJECT_NAME":"STARLINK-4710","COUNTRY_CODE":"US","RA_OF_ASC_NODE":"50.4582"},{"INCLINATION":"53.2178","OBJECT_TYPE":"PAYLOAD","ARG_OF_PERICENTER":"52.0721","MEAN_ELEMENT_THEORY":"SGP4","ELEMENT_SET_NO":"999","MEAN_MOTION_DOT":"-0.00000667","MEAN_MOTION":"15.08858351","SITE":"AFETR","EPHEMERIS_TYPE":"0","SEMIMAJOR_AXIS":"6917.824","EPOCH":"2023-01-09T13:43:40.728288","REV_AT_EPOCH":"1862","DECAY_DATE":null,"LAUNCH_DATE":"2022-09-11","NORAD_CAT_ID":"53800","PERIOD":"95.436","CLASSIFICATION_TYPE":"U","TLE_LINE1":"1 53800U 22111AD  23009.57199917 -.00000667  00000-0 -23777-4 0  9996","MEAN_ANOMALY":"308.0443","REF_FRAME":"TEME","APOAPSIS":"541.007","FILE":"3737382","CENTER_NAME":"EARTH","MEAN_MOTION_DDOT":"0.0000000000000","ECCENTRICITY":"0.00019050","TIME_SYSTEM":"UTC","TLE_LINE2":"2 53800  53.2178  49.5906 0001905  52.0721 308.0443 15.08858351 18622","PERIAPSIS":"538.371","RCS_SIZE":"LARGE","COUNTRY_CODE":"US","RA_OF_ASC_NODE":"49.5906","OBJECT_NAME":"STARLINK-4720","BSTAR":"-0.00002377700000","GP_ID":"222576478","OBJECT_ID":"2022-111AD"},{"FILE":"3737638","MEAN_MOTION_DDOT":"0.0000000000000","CENTER_NAME":"EARTH","ECCENTRICITY":"0.00020400","TIME_SYSTEM":"UTC","APOAPSIS":"541.158","REF_FRAME":"TEME","MEAN_ANOMALY":"311.8454","BSTAR":"0.00017270000000","GP_ID":"222582118","OBJECT_ID":"2022-111AE","TLE_LINE2":"2 53801  53.2177  50.4118 0002040  48.2713 311.8454 15.08839436 18590","RCS_SIZE":"LARGE","PERIAPSIS":"538.336","COUNTRY_CODE":"US","OBJECT_NAME":"STARLINK-4715","RA_OF_ASC_NODE":"50.4118","MEAN_ELEMENT_THEORY":"SGP4","ARG_OF_PERICENTER":"48.2713","ELEMENT_SET_NO":"999","MEAN_MOTION_DOT":"0.00002461","MEAN_MOTION":"15.08839436","INCLINATION":"53.2177","OBJECT_TYPE":"PAYLOAD","PERIOD":"95.438","CLASSIFICATION_TYPE":"U","TLE_LINE1":"1 53801U 22111AE  23009.36222422  .00002461  00000-0  17270-3 0  9994","EPHEMERIS_TYPE":"0","SEMIMAJOR_AXIS":"6917.882","EPOCH":"2023-01-09T08:41:36.172608","SITE":"AFETR","LAUNCH_DATE":"2022-09-11","DECAY_DATE":null,"REV_AT_EPOCH":"1859","NORAD_CAT_ID":"53801"},{"MEAN_MOTION_DOT":"0.00009397","MEAN_MOTION":"15.08847398","ELEMENT_SET_NO":"999","MEAN_ELEMENT_THEORY":"SGP4","ARG_OF_PERICENTER":"35.7033","OBJECT_TYPE":"PAYLOAD","INCLINATION":"53.2173","TLE_LINE1":"1 53802U 22111AF  23009.43215020  .00009397  00000-0  60761-3 0  9997","CLASSIFICATION_TYPE":"U","PERIOD":"95.437","NORAD_CAT_ID":"53802","DECAY_DATE":null,"LAUNCH_DATE":"2022-09-11","REV_AT_EPOCH":"1860","SEMIMAJOR_AXIS":"6917.858","EPOCH":"2023-01-09T10:22:17.777280","EPHEMERIS_TYPE":"0","SITE":"AFETR","ECCENTRICITY":"0.00020220","TIME_SYSTEM":"UTC","MEAN_MOTION_DDOT":"0.0000000000000","CENTER_NAME":"EARTH","FILE":"3737380","REF_FRAME":"TEME","APOAPSIS":"541.122","MEAN_ANOMALY":"324.4094","OBJECT_ID":"2022-111AF","GP_ID":"222576467","BSTAR":"0.00060761000000","COUNTRY_CODE":"US","OBJECT_NAME":"STARLINK-4726","RA_OF_ASC_NODE":"50.1339","RCS_SIZE":"LARGE","TLE_LINE2":"2 53802  53.2173  50.1339 0002022  35.7033 324.4094 15.08847398 18603","PERIAPSIS":"538.324"},{"INCLINATION":"53.2174","OBJECT_TYPE":"PAYLOAD","MEAN_ELEMENT_THEORY":"SGP4","ARG_OF_PERICENTER":"44.8057","ELEMENT_SET_NO":"999","MEAN_MOTION_DOT":"-0.01151145","MEAN_MOTION":"15.18898894","SEMIMAJOR_AXIS":"6887.304","EPHEMERIS_TYPE":"0","EPOCH":"2023-01-09T18:00:00.999648","SITE":"AFETR","DECAY_DATE":null,"REV_AT_EPOCH":"1885","LAUNCH_DATE":"2022-09-11","NORAD_CAT_ID":"53803","PERIOD":"94.806","CLASSIFICATION_TYPE":"U","TLE_LINE1":"1 53803U 22111AG  23009.75001157 -.01151145  00000-0 -59123-1 0  9997","APOAPSIS":"510.202","REF_FRAME":"TEME","MEAN_ANOMALY":"345.1538","FILE":"3737380","MEAN_MOTION_DDOT":"0.0000000000000","CENTER_NAME":"EARTH","ECCENTRICITY":"0.00015000","TIME_SYSTEM":"UTC","TLE_LINE2":"2 53803  53.2174  34.2320 0001500  44.8057 345.1538 15.18898894 18853","RCS_SIZE":"LARGE","PERIAPSIS":"508.136","OBJECT_NAME":"STARLINK-4727","COUNTRY_CODE":"US","RA_OF_ASC_NODE":"34.2320","BSTAR":"-0.05912300000000","GP_ID":"222576708","OBJECT_ID":"2022-111AG"}];
